STARLINK-36951          
1 67990U 26039E   26062.58336806 -.01203403  46966-3 -20187-2 0  9995
2 67990  42.9990  92.9652 0001818 277.2446 349.1623 16.01949740  1896
STARLINK-36941          
1 67991U 26039F   26064.16668981 -.01486921  66421-3 -31142-2 0  9993
2 67991  42.9977  82.9978 0001874 267.2493 131.7297 15.98130138  2155
STARLINK-36950          
1 67992U 26039G   26064.16668981 -.01460709  64366-3 -30382-2 0  9991
2 67992  42.9978  82.9941 0001830 262.9755 137.5282 15.98249640  2159
STARLINK-36975          
1 67993U 26039H   26064.16668981 -.01478852  65945-3 -30510-2 0  9997
2 67993  42.9977  82.9905 0001866 269.9496 131.9453 15.98397209  2150
STARLINK-36993          
1 67994U 26039J   26064.16668981 -.01484119  66477-3 -30378-2 0  9994
2 67994  42.9978  82.9868 0001769 268.0075 135.4624 15.98538437  2154
STARLINK-36968          
1 67995U 26039K   26064.16668981 -.01500628  68055-3 -30214-2 0  9992
2 67995  42.9977  82.9756 0001786 270.5003 137.3188 15.98832958  2159
STARLINK-36979          
1 67996U 26039L   26064.16668981 -.01500274  67930-3 -30434-2 0  9995
2 67996  42.9976  82.9792 0001818 268.5276 137.8449 15.98699891  2156
STARLINK-36994          
1 67997U 26039M   26064.16668981 -.01488792  67271-3 -29503-2 0  9999
2 67997  42.9976  82.9673 0001674 273.1925 137.8350 15.99112275  2156
STARLINK-36988          
1 67998U 26039N   26064.16668981 -.01492457  67481-3 -29798-2 0  9992
2 67998  42.9978  82.9711 0001772 268.0007 141.5546 15.98980071  2150
STARLINK-36926          
1 67999U 26039P   26064.16668981 -.01496929  68052-3 -29427-2 0  9995
2 67999  42.9978  82.9636 0001853 268.8415 143.7381 15.99254425  2157
STARLINK-36931          
1 68000U 26039Q   26064.16668981 -.01489677  67529-3 -29094-2 0  9999
2 68000  42.9979  82.9607 0001752 270.5293 143.2346 15.99368132  2159
STARLINK-36903          
1 68001U 26039R   26064.16668981 -.01467606  65792-3 -28447-2 0  9999
2 68001  42.9980  82.9567 0001756 269.0671 146.2956 15.99497797  2154
STARLINK-36898          
1 68002U 26039S   26064.16668981 -.01441288  63811-3 -27534-2 0  9994
2 68002  42.9979  82.9487 0001825 267.0897 151.2905 15.99747539  2151
STARLINK-36862          
1 68003U 26039T   26064.16668981 -.01465368  65968-3 -27587-2 0  9993
2 68003  42.9979  82.9417 0001750 269.5391 151.5925 16.00007235  2158
STARLINK-36888          
1 68004U 26039U   26064.16668981 -.01462943  65495-3 -28156-2 0  9998
2 68004  42.9980  82.9530 0001740 268.2480 148.5816 15.99621101  2157
STARLINK-36910          
1 68005U 26039V   26064.16668981 -.01460200  65460-3 -27669-2 0  9993
2 68005  42.9979  82.9451 0001810 269.6825 150.1588 15.99892975  2158
