[{"OBJECT_NAME":"STARLINK-36951","OBJECT_ID":"2026-039E","EPOCH":"2026-03-03T14:00:03.000384","MEAN_MOTION":16.0194974,"ECCENTRICITY":0.00018181,"INCLINATION":42.999,"RA_OF_ASC_NODE":92.9652,"ARG_OF_PERICENTER":277.2446,"MEAN_ANOMALY":349.1623,"EPHEMERIS_TYPE":0,"CLASSIFICATION_TYPE":"U","NORAD_CAT_ID":67990,"ELEMENT_SET_NO":999,"REV_AT_EPOCH":189,"BSTAR":-0.0020187153,"MEAN_MOTION_DOT":-0.01203403,"MEAN_MOTION_DDOT":0.00046966207},{"OBJECT_NAME":"STARLINK-36941","OBJECT_ID":"2026-039F","EPOCH":"2026-03-05T04:00:01.999584","MEAN_MOTION":15.98130138,"ECCENTRICITY":0.0001874,"INCLINATION":42.9977,"RA_OF_ASC_NODE":82.9978,"ARG_OF_PERICENTER":267.2493,"MEAN_ANOMALY":131.7297,"EPHEMERIS_TYPE":0,"CLASSIFICATION_TYPE":"U","NORAD_CAT_ID":67991,"ELEMENT_SET_NO":999,"REV_AT_EPOCH":215,"BSTAR":-0.0031142,"MEAN_MOTION_DOT":-0.01486921,"MEAN_MOTION_DDOT":0.00066421},{"OBJECT_NAME":"STARLINK-36950","OBJECT_ID":"2026-039G","EPOCH":"2026-03-05T04:00:01.999584","MEAN_MOTION":15.9824964,"ECCENTRICITY":0.000183,"INCLINATION":42.9978,"RA_OF_ASC_NODE":82.9941,"ARG_OF_PERICENTER":262.9755,"MEAN_ANOMALY":137.5282,"EPHEMERIS_TYPE":0,"CLASSIFICATION_TYPE":"U","NORAD_CAT_ID":67992,"ELEMENT_SET_NO":999,"REV_AT_EPOCH":215,"BSTAR":-0.0030382,"MEAN_MOTION_DOT":-0.01460709,"MEAN_MOTION_DDOT":0.00064366},{"OBJECT_NAME":"STARLINK-36975","OBJECT_ID":"2026-039H","EPOCH":"2026-03-05T04:00:01.999584","MEAN_MOTION":15.98397209,"ECCENTRICITY":0.0001866,"INCLINATION":42.9977,"RA_OF_ASC_NODE":82.9905,"ARG_OF_PERICENTER":269.9496,"MEAN_ANOMALY":131.9453,"EPHEMERIS_TYPE":0,"CLASSIFICATION_TYPE":"U","NORAD_CAT_ID":67993,"ELEMENT_SET_NO":999,"REV_AT_EPOCH":215,"BSTAR":-0.003051,"MEAN_MOTION_DOT":-0.01478852,"MEAN_MOTION_DDOT":0.00065945},{"OBJECT_NAME":"STARLINK-36993","OBJECT_ID":"2026-039J","EPOCH":"2026-03-05T04:00:01.999584","MEAN_MOTION":15.98538437,"ECCENTRICITY":0.0001769,"INCLINATION":42.9978,"RA_OF_ASC_NODE":82.9868,"ARG_OF_PERICENTER":268.0075,"MEAN_ANOMALY":135.4624,"EPHEMERIS_TYPE":0,"CLASSIFICATION_TYPE":"U","NORAD_CAT_ID":67994,"ELEMENT_SET_NO":999,"REV_AT_EPOCH":215,"BSTAR":-0.0030378,"MEAN_MOTION_DOT":-0.01484119,"MEAN_MOTION_DDOT":0.00066477},{"OBJECT_NAME":"STARLINK-36968","OBJECT_ID":"2026-039K","EPOCH":"2026-03-05T04:00:01.999584","MEAN_MOTION":15.98832958,"ECCENTRICITY":0.0001786,"INCLINATION":42.9977,"RA_OF_ASC_NODE":82.9756,"ARG_OF_PERICENTER":270.5003,"MEAN_ANOMALY":137.3188,"EPHEMERIS_TYPE":0,"CLASSIFICATION_TYPE":"U","NORAD_CAT_ID":67995,"ELEMENT_SET_NO":999,"REV_AT_EPOCH":215,"BSTAR":-0.0030214,"MEAN_MOTION_DOT":-0.01500628,"MEAN_MOTION_DDOT":0.00068055},{"OBJECT_NAME":"STARLINK-36979","OBJECT_ID":"2026-039L","EPOCH":"2026-03-05T04:00:01.999584","MEAN_MOTION":15.98699891,"ECCENTRICITY":0.0001818,"INCLINATION":42.9976,"RA_OF_ASC_NODE":82.9792,"ARG_OF_PERICENTER":268.5276,"MEAN_ANOMALY":137.8449,"EPHEMERIS_TYPE":0,"CLASSIFICATION_TYPE":"U","NORAD_CAT_ID":67996,"ELEMENT_SET_NO":999,"REV_AT_EPOCH":215,"BSTAR":-0.0030434,"MEAN_MOTION_DOT":-0.01500274,"MEAN_MOTION_DDOT":0.0006793},{"OBJECT_NAME":"STARLINK-36994","OBJECT_ID":"2026-039M","EPOCH":"2026-03-05T04:00:01.999584","MEAN_MOTION":15.99112275,"ECCENTRICITY":0.0001674,"INCLINATION":42.9976,"RA_OF_ASC_NODE":82.9673,"ARG_OF_PERICENTER":273.1925,"MEAN_ANOMALY":137.835,"EPHEMERIS_TYPE":0,"CLASSIFICATION_TYPE":"U","NORAD_CAT_ID":67997,"ELEMENT_SET_NO":999,"REV_AT_EPOCH":215,"BSTAR":-0.0029503,"MEAN_MOTION_DOT":-0.01488792,"MEAN_MOTION_DDOT":0.00067271},{"OBJECT_NAME":"STARLINK-36988","OBJECT_ID":"2026-039N","EPOCH":"2026-03-05T04:00:01.999584","MEAN_MOTION":15.98980071,"ECCENTRICITY":0.0001772,"INCLINATION":42.9978,"RA_OF_ASC_NODE":82.9711,"ARG_OF_PERICENTER":268.0007,"MEAN_ANOMALY":141.5546,"EPHEMERIS_TYPE":0,"CLASSIFICATION_TYPE":"U","NORAD_CAT_ID":67998,"ELEMENT_SET_NO":999,"REV_AT_EPOCH":215,"BSTAR":-0.0029798,"MEAN_MOTION_DOT":-0.01492457,"MEAN_MOTION_DDOT":0.00067481},{"OBJECT_NAME":"STARLINK-36926","OBJECT_ID":"2026-039P","EPOCH":"2026-03-05T04:00:01.999584","MEAN_MOTION":15.99254425,"ECCENTRICITY":0.0001853,"INCLINATION":42.9978,"RA_OF_ASC_NODE":82.9636,"ARG_OF_PERICENTER":268.8415,"MEAN_ANOMALY":143.7381,"EPHEMERIS_TYPE":0,"CLASSIFICATION_TYPE":"U","NORAD_CAT_ID":67999,"ELEMENT_SET_NO":999,"REV_AT_EPOCH":215,"BSTAR":-0.0029427,"MEAN_MOTION_DOT":-0.01496929,"MEAN_MOTION_DDOT":0.00068052},{"OBJECT_NAME":"STARLINK-36931","OBJECT_ID":"2026-039Q","EPOCH":"2026-03-05T04:00:01.999584","MEAN_MOTION":15.99368132,"ECCENTRICITY":0.0001752,"INCLINATION":42.9979,"RA_OF_ASC_NODE":82.9607,"ARG_OF_PERICENTER":270.5293,"MEAN_ANOMALY":143.2346,"EPHEMERIS_TYPE":0,"CLASSIFICATION_TYPE":"U","NORAD_CAT_ID":68000,"ELEMENT_SET_NO":999,"REV_AT_EPOCH":215,"BSTAR":-0.0029094,"MEAN_MOTION_DOT":-0.01489677,"MEAN_MOTION_DDOT":0.00067529},{"OBJECT_NAME":"STARLINK-36903","OBJECT_ID":"2026-039R","EPOCH":"2026-03-05T04:00:01.999584","MEAN_MOTION":15.99497797,"ECCENTRICITY":0.0001756,"INCLINATION":42.998,"RA_OF_ASC_NODE":82.9567,"ARG_OF_PERICENTER":269.0671,"MEAN_ANOMALY":146.2956,"EPHEMERIS_TYPE":0,"CLASSIFICATION_TYPE":"U","NORAD_CAT_ID":68001,"ELEMENT_SET_NO":999,"REV_AT_EPOCH":215,"BSTAR":-0.0028447,"MEAN_MOTION_DOT":-0.01467606,"MEAN_MOTION_DDOT":0.00065792},{"OBJECT_NAME":"STARLINK-36898","OBJECT_ID":"2026-039S","EPOCH":"2026-03-05T04:00:01.999584","MEAN_MOTION":15.99747539,"ECCENTRICITY":0.0001825,"INCLINATION":42.9979,"RA_OF_ASC_NODE":82.9487,"ARG_OF_PERICENTER":267.0897,"MEAN_ANOMALY":151.2905,"EPHEMERIS_TYPE":0,"CLASSIFICATION_TYPE":"U","NORAD_CAT_ID":68002,"ELEMENT_SET_NO":999,"REV_AT_EPOCH":215,"BSTAR":-0.0027534,"MEAN_MOTION_DOT":-0.01441288,"MEAN_MOTION_DDOT":0.00063811},{"OBJECT_NAME":"STARLINK-36862","OBJECT_ID":"2026-039T","EPOCH":"2026-03-05T04:00:01.999584","MEAN_MOTION":16.00007235,"ECCENTRICITY":0.000175,"INCLINATION":42.9979,"RA_OF_ASC_NODE":82.9417,"ARG_OF_PERICENTER":269.5391,"MEAN_ANOMALY":151.5925,"EPHEMERIS_TYPE":0,"CLASSIFICATION_TYPE":"U","NORAD_CAT_ID":68003,"ELEMENT_SET_NO":999,"REV_AT_EPOCH":215,"BSTAR":-0.0027587,"MEAN_MOTION_DOT":-0.01465368,"MEAN_MOTION_DDOT":0.00065968},{"OBJECT_NAME":"STARLINK-36888","OBJECT_ID":"2026-039U","EPOCH":"2026-03-05T04:00:01.999584","MEAN_MOTION":15.99621101,"ECCENTRICITY":0.000174,"INCLINATION":42.998,"RA_OF_ASC_NODE":82.953,"ARG_OF_PERICENTER":268.248,"MEAN_ANOMALY":148.5816,"EPHEMERIS_TYPE":0,"CLASSIFICATION_TYPE":"U","NORAD_CAT_ID":68004,"ELEMENT_SET_NO":999,"REV_AT_EPOCH":215,"BSTAR":-0.0028156,"MEAN_MOTION_DOT":-0.01462943,"MEAN_MOTION_DDOT":0.00065495},{"OBJECT_NAME":"STARLINK-36910","OBJECT_ID":"2026-039V","EPOCH":"2026-03-05T04:00:01.999584","MEAN_MOTION":15.99892975,"ECCENTRICITY":0.000181,"INCLINATION":42.9979,"RA_OF_ASC_NODE":82.9451,"ARG_OF_PERICENTER":269.6825,"MEAN_ANOMALY":150.1588,"EPHEMERIS_TYPE":0,"CLASSIFICATION_TYPE":"U","NORAD_CAT_ID":68005,"ELEMENT_SET_NO":999,"REV_AT_EPOCH":215,"BSTAR":-0.0027669,"MEAN_MOTION_DOT":-0.014602,"MEAN_MOTION_DDOT":0.0006546}]
